STARLINK-36847          
1 67910U 26036G   26064.25003472 -.00075426  00000+0 -35797-3 0  9990
2 67910  42.9978 276.9531 0001473 266.2194 237.1214 15.82064525  2934
STARLINK-36736          
1 67911U 26036H   26064.25003472 -.00057424  00000+0 -27141-3 0  9993
2 67911  42.9975 276.9421 0001469 298.6200 208.9736 15.82061359  2939
STARLINK-36676          
1 67912U 26036J   26064.25003472  .00002000  00000+0  12012-4 0  9994
2 67912  42.9978 276.9324 0001950 271.0988 240.7740 15.82049077  2930
STARLINK-36690          
1 67913U 26036K   26064.25003472 -.00011967  00000+0 -54330-4 0  9998
2 67913  42.9977 276.9207 0001359 275.2883 240.8749 15.82034480  2935
STARLINK-36724          
1 67914U 26036L   26064.25003472 -.00004975  00000+0 -21087-4 0  9993
2 67914  42.9979 276.8989 0001751 288.2164 236.4966 15.82032818  2931
STARLINK-36723          
1 67915U 26036M   26064.25003472 -.00053208  00000+0 -25128-3 0  9996
2 67915  42.9977 276.9101 0001396 261.5371 258.8964 15.82051952  2932
STARLINK-36721          
1 67916U 26036N   26064.25003472 -.00080235  00000+0 -38084-3 0  9992
2 67916  42.9977 276.8890 0001554 289.1768 239.7942 15.82082553  2934
STARLINK-36722          
1 67917U 26036P   26064.25003472 -.00086525  00000+0 -41106-3 0  9990
2 67917  42.9957 276.8777 0001676 280.5711 252.6634 15.82089192  2933
STARLINK-36341          
1 67918U 26036Q   26064.25003472  .00010091  00000+0  50353-4 0  9999
2 67918  42.9937 276.8561 0001624 267.5753 274.2118 15.82034834  2937
STARLINK-36663          
1 67919U 26036R   26064.25003472 -.00087568  00000+0 -41607-3 0  9996
2 67919  42.9954 276.8670 0002192 280.1997 257.3096 15.82088207  2930
STARLINK-36375          
1 67920U 26036S   26064.25003472  .00025146  00000+0  12157-3 0  9998
2 67920  42.9943 276.8451 0002190 269.9055 276.1676 15.82021343  2936
STARLINK-36405          
1 67921U 26036T   26064.25003472 -.00008719  00000+0 -38881-4 0  9991
2 67921  42.9945 276.8347 0001875 256.3737 293.9833 15.82033860  2938
